$$SOE
2460728.500000000, A.D. 2025-Feb-22 00:00:00.0000, -4.990024105999224E+08, -2.642123393731155E+05, 4.678931001268701E+07,
2460735.500000000, A.D. 2025-Mar-01 00:00:00.0000, -4.993049681413943E+08, -9.751176232549028E+06, 4.517899925401641E+07,
2460742.500000000, A.D. 2025-Mar-08 00:00:00.0000, -4.994152579349306E+08, -1.923443681406792E+07, 4.355129135645649E+07,
2460749.500000000, A.D. 2025-Mar-15 00:00:00.0000, -4.993335093581412E+08, -2.871035145321234E+07, 4.190683683934264E+07,
2460756.500000000, A.D. 2025-Mar-22 00:00:00.0000, -4.990600165082743E+08, -3.817528809316276E+07, 4.024629023950393E+07,
2460763.500000000, A.D. 2025-Mar-29 00:00:00.0000, -4.985951386253513E+08, -4.762562787174169E+07, 3.857030986865459E+07,
2460770.500000000, A.D. 2025-Apr-05 00:00:00.0000, -4.979392988208516E+08, -5.705776684215250E+07, 3.687955749050806E+07,
2460777.500000000, A.D. 2025-Apr-12 00:00:00.0000, -4.970929830356435E+08, -6.646811669154157E+07, 3.517469810219207E+07,
2460784.500000000, A.D. 2025-Apr-19 00:00:00.0000, -4.960567394147133E+08, -7.585310534136458E+07, 3.345639976480892E+07,
2460791.500000000, A.D. 2025-Apr-26 00:00:00.0000, -4.948311778292117E+08, -8.520917763425834E+07, 3.172533344156181E+07,
2460798.500000000, A.D. 2025-May-03 00:00:00.0000, -4.934169694344353E+08, -9.453279608868574E+07, 2.998217283455590E+07,
2460805.500000000, A.D. 2025-May-10 00:00:00.0000, -4.918148462367867E+08, -1.038204417124556E+08, 2.822759421825463E+07,
2460812.500000000, A.D. 2025-May-17 00:00:00.0000, -4.900256006338310E+08, -1.130686149157383E+08, 2.646227626268757E+07,
2460819.500000000, A.D. 2025-May-24 00:00:00.0000, -4.880500847537732E+08, -1.222738365777179E+08, 2.468689982579090E+07,
2460826.500000000, A.D. 2025-May-31 00:00:00.0000, -4.858892091763486E+08, -1.314326489557424E+08, 2.290214770175957E+07,
2460833.500000000, A.D. 2025-Jun-07 00:00:00.0000, -4.835439414353938E+08, -1.405416152322462E+08, 2.110870446043959E+07,
2460840.500000000, A.D. 2025-Jun-14 00:00:00.0000, -4.810153066670098E+08, -1.495973183669626E+08, 1.930725653993822E+07,
2460847.500000000, A.D. 2025-Jun-21 00:00:00.0000, -4.783043891871005E+08, -1.585963625268481E+08, 1.749849221337158E+07,
2460854.500000000, A.D. 2025-Jun-28 00:00:00.0000, -4.754123318708916E+08, -1.675353753291847E+08, 1.568310128701409E+07,
2460861.500000000, A.D. 2025-Jul-05 00:00:00.0000, -4.723403348503907E+08, -1.764110087409679E+08, 1.386177484516025E+07,
2460868.500000000, A.D. 2025-Jul-12 00:00:00.0000, -4.690896547195364E+08, -1.852199394403118E+08, 1.203520508502433E+07,
2460875.500000000, A.D. 2025-Jul-19 00:00:00.0000, -4.656616040571331E+08, -1.939588692159722E+08, 1.020408517720018E+07,
2460882.500000000, A.D. 2025-Jul-26 00:00:00.0000, -4.620575510579450E+08, -2.026245254623779E+08, 8.369109127772748E+06,
2460889.500000000, A.D. 2025-Aug-02 00:00:00.0000, -4.582789192068100E+08, -2.112136617489267E+08, 6.530971637872741E+06,
2460896.500000000, A.D. 2025-Aug-09 00:00:00.0000, -4.543271869723107E+08, -2.197230584783906E+08, 4.690367957385942E+06,
2460903.500000000, A.D. 2025-Aug-16 00:00:00.0000, -4.502038874428612E+08, -2.281495236978498E+08, 2.847993720671594E+06,
2460910.500000000, A.D. 2025-Aug-23 00:00:00.0000, -4.459106076123505E+08, -2.364898940458639E+08, 1.004544738911480E+06,
2460917.500000000, A.D. 2025-Aug-30 00:00:00.0000, -4.414489869860402E+08, -2.447410351219711E+08, -8.392832225848287E+05,
2460924.500000000, A.D. 2025-Sep-06 00:00:00.0000, -4.368207169241270E+08, -2.528998402784067E+08, -2.682794470143259E+06,
2460931.500000000, A.D. 2025-Sep-13 00:00:00.0000, -4.320275423931226E+08, -2.609632303176848E+08, -4.525293260121763E+06,
2460938.500000000, A.D. 2025-Sep-20 00:00:00.0000, -4.270712628523542E+08, -2.689281557416384E+08, -6.366083964469194E+06,
2460945.500000000, A.D. 2025-Sep-27 00:00:00.0000, -4.219537312176573E+08, -2.767915984405429E+08, -8.204471366108775E+06,
2460952.500000000, A.D. 2025-Oct-04 00:00:00.0000, -4.166768529183389E+08, -2.845505722826546E+08, -1.003976085496575E+07,
2460959.500000000, A.D. 2025-Oct-11 00:00:00.0000, -4.112425854199906E+08, -2.922021235472514E+08, -1.187125856741941E+07,
2460966.500000000, A.D. 2025-Oct-18 00:00:00.0000, -4.056529379288841E+08, -2.997433314762868E+08, -1.369827151775475E+07,
2460973.500000000, A.D. 2025-Oct-25 00:00:00.0000, -3.999099711384556E+08, -3.071713089343787E+08, -1.552010773373470E+07,
2460980.500000000, A.D. 2025-Nov-01 00:00:00.0000, -3.940157969787207E+08, -3.144832031620011E+08, -1.733607639891888E+07,
2460987.500000000, A.D. 2025-Nov-08 00:00:00.0000, -3.879725783342933E+08, -3.216761966532669E+08, -1.914548800777344E+07,
2460994.500000000, A.D. 2025-Nov-15 00:00:00.0000, -3.817825285832360E+08, -3.287475082164875E+08, -2.094765455224778E+07,
2461001.500000000, A.D. 2025-Nov-22 00:00:00.0000, -3.754479105538779E+08, -3.356943939966164E+08, -2.274188975905371E+07,
2461008.500000000, A.D. 2025-Nov-29 00:00:00.0000, -3.689710350519910E+08, -3.425141473233038E+08, -2.452750927102242E+07,
2461015.500000000, A.D. 2025-Dec-06 00:00:00.0000, -3.623542612339073E+08, -3.492040975193107E+08, -2.630383057486418E+07,
2461022.500000000, A.D. 2025-Dec-13 00:00:00.0000, -3.555999983898897E+08, -3.557616110396952E+08, -2.807017299070720E+07,
2461029.500000000, A.D. 2025-Dec-20 00:00:00.0000, -3.487107056438286E+08, -3.621840939199358E+08, -2.982585796047194E+07,
2461036.500000000, A.D. 2025-Dec-27 00:00:00.0000, -3.416888906430969E+08, -3.684689929425804E+08, -3.157020932505837E+07,
2461043.500000000, A.D. 2026-Jan-03 00:00:00.0000, -3.345371086977534E+08, -3.746137961380927E+08, -3.330255350699227E+07,
2461050.500000000, A.D. 2026-Jan-10 00:00:00.0000, -3.272579622592086E+08, -3.806160332985343E+08, -3.502221966423403E+07,
2461057.500000000, A.D. 2026-Jan-17 00:00:00.0000, -3.198541005056108E+08, -3.864732765952225E+08, -3.672853984409654E+07,
2461064.500000000, A.D. 2026-Jan-24 00:00:00.0000, -3.123282189558146E+08, -3.921831412771285E+08, -3.842084914264670E+07,
2461071.500000000, A.D. 2026-Jan-31 00:00:00.0000, -3.046830590881900E+08, -3.977432864566355E+08, -4.009848587236035E+07,
2461078.500000000, A.D. 2026-Feb-07 00:00:00.0000, -2.969214079022583E+08, -4.031514160390438E+08, -4.176079174831155E+07,
2461085.500000000, A.D. 2026-Feb-14 00:00:00.0000, -2.890460971694231E+08, -4.084052798101687E+08, -4.340711211729252E+07,
2461092.500000000, A.D. 2026-Feb-21 00:00:00.0000, -2.810600019844856E+08, -4.135026741041027E+08, -4.503679621818027E+07,
2461099.500000000, A.D. 2026-Feb-28 00:00:00.0000, -2.729660397018323E+08, -4.184414408966833E+08, -4.664919727967906E+07,
2461106.500000000, A.D. 2026-Mar-07 00:00:00.0000, -2.647671713134333E+08, -4.232194672739245E+08, -4.824367242590243E+07,
2461113.500000000, A.D. 2026-Mar-14 00:00:00.0000, -2.564664024917739E+08, -4.278346876085852E+08, -4.981958283510393E+07,
2461120.500000000, A.D. 2026-Mar-21 00:00:00.0000, -2.480667825145811E+08, -4.322850855477720E+08, -5.137629407837698E+07,
2461127.500000000, A.D. 2026-Mar-28 00:00:00.0000, -2.395714030805255E+08, -4.365686947829500E+08, -5.291317636991084E+07,
2461134.500000000, A.D. 2026-Apr-04 00:00:00.0000, -2.309833976189115E+08, -4.406835995675122E+08, -5.442960475217095E+07,
2461141.500000000, A.D. 2026-Apr-11 00:00:00.0000, -2.223059408183821E+08, -4.446279353414218E+08, -5.592495927034852E+07,
2461148.500000000, A.D. 2026-Apr-18 00:00:00.0000, -2.135422482141006E+08, -4.483998894695107E+08, -5.739862515110290E+07,
2461155.500000000, A.D. 2026-Apr-25 00:00:00.0000, -2.046955757863970E+08, -4.519977020789635E+08, -5.884999298854113E+07,
2461162.500000000, A.D. 2026-May-02 00:00:00.0000, -1.957692195392268E+08, -4.554196670259086E+08, -6.027845894265425E+07,
2461169.500000000, A.D. 2026-May-09 00:00:00.0000, -1.867665149330285E+08, -4.586641330574102E+08, -6.168342496701297E+07,
2461176.500000000, A.D. 2026-May-16 00:00:00.0000, -1.776908357932332E+08, -4.617295050302765E+08, -6.306429908901322E+07,
2461183.500000000, A.D. 2026-May-23 00:00:00.0000, -1.685455926417907E+08, -4.646142441636829E+08, -6.442049566376418E+07,
2461190.500000000, A.D. 2026-May-30 00:00:00.0000, -1.593342325290681E+08, -4.673168670048141E+08, -6.575143538467404E+07,
2461197.500000000, A.D. 2026-Jun-06 00:00:00.0000, -1.500602406816949E+08, -4.698359463798659E+08, -6.705654528902927E+07,
2461204.500000000, A.D. 2026-Jun-13 00:00:00.0000, -1.407271402987702E+08, -4.721701141314590E+08, -6.833525907871336E+07,
2461211.500000000, A.D. 2026-Jun-20 00:00:00.0000, -1.313384909965010E+08, -4.743180627167835E+08, -6.958701747129294E+07,
2461218.500000000, A.D. 2026-Jun-27 00:00:00.0000, -1.218978875987930E+08, -4.762785460062910E+08, -7.081126845376059E+07,
2461225.500000000, A.D. 2026-Jul-04 00:00:00.0000, -1.124089592729907E+08, -4.780503800575740E+08, -7.200746750258139E+07,
2461232.500000000, A.D. 2026-Jul-11 00:00:00.0000, -1.028753687559997E+08, -4.796324439960701E+08, -7.317507780450091E+07,
2461239.500000000, A.D. 2026-Jul-18 00:00:00.0000, -9.330081157735683E+07, -4.810236809765564E+08, -7.431357048492759E+07,
2461246.500000000, A.D. 2026-Jul-25 00:00:00.0000, -8.368901525429799E+07, -4.822230992223340E+08, -7.542242484628278E+07,
2461253.500000000, A.D. 2026-Aug-01 00:00:00.0000, -7.404373841047558E+07, -4.832297731895165E+08, -7.650112862486607E+07,
2461260.500000000, A.D. 2026-Aug-08 00:00:00.0000, -6.436876960318466E+07, -4.840428448909794E+08, -7.754917828880242E+07,
2461267.500000000, A.D. 2026-Aug-15 00:00:00.0000, -5.466792544336192E+07, -4.846615249277786E+08, -7.856607937803423E+07,
2461274.500000000, A.D. 2026-Aug-22 00:00:00.0000, -4.494504876817582E+07, -4.850850920048627E+08, -7.955134671640533E+07,
2461281.500000000, A.D. 2026-Aug-29 00:00:00.0000, -3.520400915357038E+07, -4.853128923020523E+08, -8.050450439784160E+07,
2461288.500000000, A.D. 2026-Sep-05 00:00:00.0000, -2.544870363116357E+07, -4.853443415676293E+08, -8.142508597682828E+07,
$$EOE